STARLINK-34177          
1 64170U 25113A   25177.48139699  .00025628  00000+0  64833-3 0  9990
2 64170  53.1581 202.9631 0000329 117.3302 242.7736 15.39628337  5819
STARLINK-34228          
1 64171U 25113B   25178.16668981 -.03433570  00000+0 -89776-1 0  9993
2 64171  53.1589 199.3800 0000664 145.9595 232.7411 15.42651498  5927
STARLINK-34233          
1 64172U 25113C   25177.91668981  .00067625  00000+0  16879-2 0  9990
2 64172  53.1597 200.7577 0001212  70.9346 260.4579 15.39579320  5962
STARLINK-34172          
1 64173U 25113D   25177.44759157  .00054320  00000+0  97647-3 0  9996
2 64173  53.1574 202.7466 0000572 142.0817 218.0233 15.49351828  5776
STARLINK-34202          
1 64174U 25113E   25177.91668981  .00064402  00000+0  16084-2 0  9990
2 64174  53.1590 200.6551 0000783  96.3507 286.5270 15.39583171  5967
STARLINK-34231          
1 64175U 25113F   25178.16668981 -.01856473  00000+0 -45585-1 0  9996
2 64175  53.1591 199.3361 0001185  89.7932 310.1922 15.43345828  5910
STARLINK-34191          
1 64176U 25113G   25177.44690101  .00065638  00000+0  11766-2 0  9993
2 64176  53.1582 202.7445 0001291 240.1510 119.9371 15.49350568  5811
STARLINK-34164          
1 64177U 25113H   25178.06098291  .00049244  00000+0  12315-2 0  9991
2 64177  53.1602 200.1772 0001217 309.5636  50.5262 15.39660689  5903
STARLINK-34227          
1 64178U 25113J   25177.91668981  .00066303  00000+0  16554-2 0  9998
2 64178  53.1590 200.6023 0001077  82.5675 326.0802 15.39579218  5963
STARLINK-34194          
1 64179U 25113K   25177.91668981  .00071319  00000+0  17771-2 0  9994
2 64179  53.1595 200.7054 0001198 109.4488 247.6380 15.39606471  5960
STARLINK-34000          
1 64180U 25113L   25178.16668981 -.01598425  00000+0 -37068-1 0  9999
2 64180  53.1593 199.3011 0000745 100.0313 317.3109 15.45060966  5860
STARLINK-33917          
1 64181U 25113M   25178.08958999  .00030883  00000+0  55965-3 0  9996
2 64181  53.1581 199.6431 0007577 312.2123  47.8242 15.49358542  5916
STARLINK-34131          
1 64182U 25113N   25178.16668981  .00011665  00000+0  21754-3 0  9991
2 64182  53.1583 199.2744 0001149  93.6940 336.7065 15.49301952  5835
STARLINK-34188          
1 64183U 25113P   25178.05601232  .00025591  00000+0  64735-3 0  9995
2 64183  53.1565 200.1463 0002043  76.8444 283.2789 15.39631196  5904
STARLINK-34197          
1 64184U 25113Q   25178.06065621  .00042916  00000+0  10758-2 0  9998
2 64184  53.1586 200.1761 0001865  81.5861 278.5355 15.39648892  5903
STARLINK-34063          
1 64185U 25113R   25178.16668981 -.01893212  00000+0 -49067-1 0  9998
2 64185  53.1592 199.3207 0001415  93.2723 313.0151 15.41813490  5925
STARLINK-34200          
1 64186U 25113S   25178.21990619 -.00793644  00000+0 -18332-1 0  9999
2 64186  53.1595 199.0367 0001493 113.0359 247.0805 15.44555519  5936
STARLINK-33934          
1 64187U 25113T   25178.05633930  .00024061  00000+0  60933-3 0  9996
2 64187  53.1597 200.1499 0001217  53.0928 307.0188 15.39633353  5868
STARLINK-33929          
1 64188U 25113U   25178.08752704  .00041374  00000+0  74760-3 0  9990
2 64188  53.1578 199.6279 0001154 115.9874 244.1254 15.49325106  5910
STARLINK-33872          
1 64189U 25113V   25178.08718093  .00042850  00000+0  77350-3 0  9992
2 64189  53.1583 199.6283 0001748 104.9268 255.1935 15.49337240  5725
STARLINK-34214          
1 64190U 25113W   25178.16668981 -.01606715  00000+0 -36185-1 0  9991
2 64190  53.1592 199.2522 0000994  83.1893 356.6444 15.45923373  5921
STARLINK-34222          
1 64191U 25113X   25178.08649192  .00052030  00000+0  93601-3 0  9996
2 64191  53.1582 199.6212 0001499  96.9988 263.1192 15.49348666  5820
STARLINK-34265          
1 64192U 25113Y   25178.05137361  .00025411  00000+0  64227-3 0  9999
2 64192  53.1597 200.1139 0000620 107.3660 252.7413 15.39661038  5866
STARLINK-34245          
1 64193U 25113Z   25177.91668981  .00073322  00000+0  18260-2 0  9990
2 64193  53.1595 200.6986 0001121  89.8627 269.0374 15.39611021  5936
STARLINK-34237          
1 64194U 25113AA  25178.16668981  .00013700  00000+0  25420-3 0  9990
2 64194  53.1582 199.2250 0001202  91.4773   2.0134 15.49280220  5833
STARLINK-33857          
1 64195U 25113AB  25177.91668981  .00064405  00000+0  16083-2 0  9995
2 64195  53.1587 200.5960 0001029  87.1573 323.3270 15.39586360  5923
STARLINK-34173          
1 64196U 25113AC  25177.91668981  .00071732  00000+0  17878-2 0  9990
2 64196  53.1589 200.6455 0000751 111.3909 273.3224 15.39597239  5964
SHIJIAN-26 (SJ-26)      
1 64199U 25115A   25177.94435595  .00004521  00000+0  20295-3 0  9991
2 64199  97.4907 253.2587 0011566 151.0799 209.1079 15.21637452  4378
CZ-4B DEB               
1 64200U 25115B   25177.75951950  .00024368  00000+0  13644-2 0  9991
2 64200  97.5231 252.7048 0060618  99.8104 260.9978 15.11827630  4314
CZ-4B R/B               
1 64201U 25115C   25177.94190630  .00066991  35099-5  36908-3 0  9992
2 64201  97.4318 254.8900 0144476 269.6501  88.8203 15.66233310  4474
NAVSTAR 84 (USA 545)    
1 64202U 25116A   25174.85990094 -.00000073  00000+0  00000+0 0  9991
2 64202  54.9750  45.5824 0001435 301.0237 242.8828  2.00570175   688
STARLINK-33966          
1 64203U 25117A   25178.16668981 -.01635977  00000+0 -33949-1 0  9997
2 64203  53.1603 150.6729 0000959 100.8299 311.0770 15.48323164  4311
STARLINK-34331          
1 64204U 25117B   25178.16668981  .00014983  00000+0  27716-3 0  9990
2 64204  53.1603 150.6681 0001208  87.9344 326.4212 15.49286237  4325
STARLINK-34251          
1 64205U 25117C   25178.16668981  .00015378  00000+0  28424-3 0  9997
2 64205  53.1603 150.6634 0001080  88.3793 327.8909 15.49284939  4319
STARLINK-34311          
1 64206U 25117D   25178.16668981  .00014639  00000+0  27102-3 0  9999
2 64206  53.1602 150.6599 0001205  85.3826 332.8289 15.49282325  4327
STARLINK-34324          
1 64207U 25117E   25178.16668981 -.01182809  00000+0 -23034-1 0  9996
2 64207  53.1601 150.6508 0000919  86.8134 335.1414 15.49644113  4318
STARLINK-34327          
1 64208U 25117F   25178.16668981 -.01612424  00000+0 -37607-1 0  9999
2 64208  53.1607 150.6752 0000750  92.8825 317.3739 15.44923466  4300
STARLINK-33944          
1 64209U 25117G   25178.16668981 -.01888731  00000+0 -48445-1 0  9998
2 64209  53.1603 150.7032 0001683  63.8394 332.1837 15.42111312  4316
STARLINK-34310          
1 64210U 25117H   25178.16668981  .00032962  00000+0  59864-3 0  9993
2 64210  53.1603 150.6430 0001252  91.7615 334.0863 15.49288043  4321
STARLINK-34258          
1 64211U 25117J   25178.16668981  .00014060  00000+0  26066-3 0  9991
2 64211  53.1602 150.6390 0001185  90.0625 337.7370 15.49280261  4321
STARLINK-34284          
1 64212U 25117K   25178.16668981  .00013541  00000+0  25128-3 0  9993
2 64212  53.1602 150.6349 0001061  91.4951 338.1975 15.49288549  4329
STARLINK-34332          
1 64213U 25117L   25177.91668981  .00061708  00000+0  11099-2 0  9995
2 64213  53.1602 151.8252 0001223  95.3133  21.1024 15.49281173  5399
STARLINK-34283          
1 64214U 25117M   25178.16668981  .00015067  00000+0  27860-3 0  9995
2 64214  53.1602 150.6263 0001063  88.4037 345.1121 15.49291539  4323
STARLINK-34349          
1 64215U 25117N   25178.16668981  .00014274  00000+0  26440-3 0  9998
2 64215  53.1601 150.6227 0001207  85.5065 349.9217 15.49291756  4321
STARLINK-34296          
1 64216U 25117P   25178.16668981  .00016225  00000+0  29938-3 0  9992
2 64216  53.1602 150.6185 0001063  95.6552 341.7008 15.49289095  4319
STARLINK-34320          
1 64217U 25117Q   25178.16668981 -.01600896  00000+0 -36947-1 0  9995
2 64217  53.1602 150.6280 0001072  89.1939 343.3811 15.45203116  4320
STARLINK-34300          
1 64218U 25117R   25178.16668981 -.01849614  00000+0 -46089-1 0  9997
2 64218  53.1602 150.6581 0001186  60.1120 357.4257 15.42901219  4328
STARLINK-34323          
1 64219U 25117S   25178.16668981 -.00752832  00000+0 -14535-1 0  9993
2 64219  53.1599 150.6060 0000890  88.3059 354.7416 15.49571907  4310
STARLINK-34328          
1 64220U 25117T   25178.16668981  .00017836  00000+0  32821-3 0  9991
2 64220  53.1601 150.6021 0001197  91.1733 353.8365 15.49292060  4329
STARLINK-34326          
1 64221U 25117U   25178.16668981 -.01617654  00000+0 -34825-1 0  9993
2 64221  53.1604 150.6030 0000851  87.5216 357.1960 15.47241623  4318
STARLINK-34318          
1 64222U 25117V   25178.16668981  .00016649  00000+0  30696-3 0  9992
2 64222  53.1600 150.5943 0001200  88.8298   0.0163 15.49291312  4311
STARLINK-34337          
1 64223U 25117W   25178.16668981  .00015390  00000+0  28439-3 0  9997
2 64223  53.1600 150.5904 0001197  92.2923 358.4740 15.49291441  4312
STARLINK-34304          
1 64224U 25117X   25178.16668981  .00016090  00000+0  29695-3 0  9991
2 64224  53.1600 150.5859 0001143  89.9902   2.6985 15.49290962  4319
STARLINK-34289          
1 64225U 25117Y   25178.16668981  .00015034  00000+0  27806-3 0  9991
2 64225  53.1600 150.5821 0001172  93.6273   0.9853 15.49286024  4313
STARLINK-34347          
1 64226U 25117Z   25178.16668981  .00015350  00000+0  28381-3 0  9992
2 64226  53.1601 150.5783 0001098  95.2906   1.2687 15.49277620  4311
STARLINK-34330          
1 64227U 25117AA  25178.16668981  .00016136  00000+0  29795-3 0  9996
2 64227  53.1600 150.5700 0001124  94.7121   5.7207 15.49272606  4319
STARLINK-34167          
1 64228U 25117AB  25178.16668981  .00013487  00000+0  25030-3 0  9991
2 64228  53.1602 150.5739 0000954  79.5723  18.8654 15.49290141  4318
STARLINK-34241          
1 64229U 25117AC  25177.92424380  .00033121  00000+0  83401-3 0  9991
2 64229  53.1599 154.2909 0001854  78.9842 281.1371 15.39633846  4244
2025-118A               
1 64230U 25118A   25177.98942867  .00016419  00000+0  54512-3 0  9997
2 64230  58.9920 122.9278 0011363 356.0565   4.0416 15.31372075  3670
